HST                     
1 20580U 90037B   24135.57988612  .00008333  00000+0  39750-3 0  9998
2 20580  28.4674 210.2248 0002630  41.7617 318.3176 15.17278117671928
